[{"OBJECT_NAME":"STARLINK-1843","OBJECT_ID":"2020-088M","EPOCH":"2026-03-10T00:00:02.999808","MEAN_MOTION":15.86776204,"ECCENTRICITY":0.00043097,"INCLINATION":53.0427,"RA_OF_ASC_NODE":241.618,"ARG_OF_PERICENTER":322.3454,"MEAN_ANOMALY":52.8861,"EPHEMERIS_TYPE":0,"CLASSIFICATION_TYPE":"U","NORAD_CAT_ID":47133,"ELEMENT_SET_NO":999,"REV_AT_EPOCH":598,"BSTAR":0.00089943475,"MEAN_MOTION_DOT":0.00240916,"MEAN_MOTION_DDOT":0},{"OBJECT_NAME":"STARLINK-34411","OBJECT_ID":"2025-192L","EPOCH":"2026-03-09T22:00:01.999584","MEAN_MOTION":15.87096249,"ECCENTRICITY":0.00112731,"INCLINATION":53.1366,"RA_OF_ASC_NODE":218.8103,"ARG_OF_PERICENTER":288.4829,"MEAN_ANOMALY":341.4373,"EPHEMERIS_TYPE":0,"CLASSIFICATION_TYPE":"U","NORAD_CAT_ID":65414,"ELEMENT_SET_NO":999,"REV_AT_EPOCH":591,"BSTAR":0.0014738346,"MEAN_MOTION_DOT":0.00410675,"MEAN_MOTION_DDOT":0}]
